FENGYUN 1C DEB          
1 33721U 99025DHJ 17345.15309819  .00000585  00000-0  11018-3 0  9999
2 33721  98.7924 238.5904 0133856 139.9260 221.1909 14.63301267547131
